{"type": "FeatureCollection", "features": [ {"type": "Feature", "properties": {"norad_id": 33799, "name": "COSMOS 2251 DEB", "group": "cosmos-2251-debris", "lat": 19.76458734924694, "lon": -119.961602926773, "alt_km": 615.6226823614479, "timestamp": "2025-12-20T18:51:32.105736+00:00", "meta": {"OBJECT_NAME": "COSMOS 2251 DEB", "OBJECT_ID": "1993-036AQ", "EPOCH": "2025-12-20T07:03:16.350336", "MEAN_MOTION": 14.79707053, "ECCENTRICITY": 0.00227185, "INCLINATION": 74.0324, "RA_OF_ASC_NODE": 66.9118, "ARG_OF_PERICENTER": 134.9358, "MEAN_ANOMALY": 285.2907, "EPHEMERIS_TYPE": 0, "CLASSIFICATION_TYPE": "U", "NORAD_CAT_ID": 33799, "ELEMENT_SET_NO": 999, "REV_AT_EPOCH": 88923, "BSTAR": 0.0007590979, "MEAN_MOTION_DOT": 5.698e-05, "MEAN_MOTION_DDOT": 0}, "tle": {"line1": "1 33799U 93036AQ  25354.29393924  .00005698  00000+0  75910-3 0  9994", "line2": "2 33799  74.0324  66.9118 0022718 134.9358 285.2907 14.79707053889233"}}, "geometry": {"type": "Point", "coordinates": [-119.961602926773, 19.76458734924694]}}, {"type": "Feature", "properties": {"norad_id": 33805, "name": "COSMOS 2251 DEB", "group": "cosmos-2251-debris", "lat": 21.378115661565293, "lon": -57.53943301091233, "alt_km": 706.8978861316782, "timestamp": "2025-12-20T18:51:32.105747+00:00", "meta": {"OBJECT_NAME": "COSMOS 2251 DEB", "OBJECT_ID": "1993-036AW", "EPOCH": "2025-12-20T05:34:52.586112", "MEAN_MOTION": 14.57871004, "ECCENTRICITY": 0.0059987, "INCLINATION": 74.0312, "RA_OF_ASC_NODE": 297.0767, "ARG_OF_PERICENTER": 123.8759, "MEAN_ANOMALY": 236.8133, "EPHEMERIS_TYPE": 0, "CLASSIFICATION_TYPE": "U", "NORAD_CAT_ID": 33805, "ELEMENT_SET_NO": 999, "REV_AT_EPOCH": 89336, "BSTAR": 0.00016488, "MEAN_MOTION_DOT": 7.44e-06, "MEAN_MOTION_DDOT": 0}, "tle": {"line1": "1 33805U 93036AW  25354.23255308  .00000744  00000+0  16488-3 0  9991", "line2": "2 33805  74.0312 297.0767 0059987 123.8759 236.8133 14.57871004893361"}}, "geometry": {"type": "Point", "coordinates": [-57.53943301091233, 21.378115661565293]}}, {"type": "Feature", "properties": {"norad_id": 33811, "name": "COSMOS 2251 DEB", "group": "cosmos-2251-debris", "lat": -6.539237988656765, "lon": 107.87196570907396, "alt_km": 574.8740525439052, "timestamp": "2025-12-20T18:51:32.105757+00:00", "meta": {"OBJECT_NAME": "COSMOS 2251 DEB", "OBJECT_ID": "1993-036BC", "EPOCH": "2025-12-20T05:59:17.746080", "MEAN_MOTION": 15.05474217, "ECCENTRICITY": 0.0030845, "INCLINATION": 73.8378, "RA_OF_ASC_NODE": 287.0789, "ARG_OF_PERICENTER": 6.6191, "MEAN_ANOMALY": 154.8287, "EPHEMERIS_TYPE": 0, "CLASSIFICATION_TYPE": "U", "NORAD_CAT_ID": 33811, "ELEMENT_SET_NO": 999, "REV_AT_EPOCH": 90131, "BSTAR": 0.00076176, "MEAN_MOTION_DOT": 0.00011039, "MEAN_MOTION_DDOT": 0}, "tle": {"line1": "1 33811U 93036BC  25354.24951095  .00011039  00000+0  76176-3 0  9994", "line2": "2 33811  73.8378 287.0789 0030845   6.6191 154.8287 15.05474217901313"}}, "geometry": {"type": "Point", "coordinates": [107.87196570907396, -6.539237988656765]}}, {"type": "Feature", "properties": {"norad_id": 33815, "name": "COSMOS 2251 DEB", "group": "cosmos-2251-debris", "lat": -63.33993039848253, "lon": 124.6719969781652, "alt_km": 511.4084074658258, "timestamp": "2025-12-20T18:51:32.105777+00:00", "meta": {"OBJECT_NAME": "COSMOS 2251 DEB", "OBJECT_ID": "1993-036BG", "EPOCH": "2025-12-20T11:21:55.623744", "MEAN_MOTION": 15.19948795, "ECCENTRICITY": 0.00018762, "INCLINATION": 73.9516, "RA_OF_ASC_NODE": 160.3131, "ARG_OF_PERICENTER": 310.8482, "MEAN_ANOMALY": 73.0237, "EPHEMERIS_TYPE": 0, "CLASSIFICATION_TYPE": "U", "NORAD_CAT_ID": 33815, "ELEMENT_SET_NO": 999, "REV_AT_EPOCH": 88488, "BSTAR": 0.0047570394, "MEAN_MOTION_DOT": 0.001038, "MEAN_MOTION_DDOT": 0}, "tle": {"line1": "1 33815U 93036BG  25354.47356046  .00103800  00000+0  47570-2 0  9991", "line2": "2 33815  73.9516 160.3131 0001876 310.8482  73.0237 15.19948795884882"}}, "geometry": {"type": "Point", "coordinates": [124.6719969781652, -63.33993039848253]}}, {"type": "Feature", "properties": {"norad_id": 33816, "name": "COSMOS 2251 DEB", "group": "cosmos-2251-debris", "lat": 36.87712994989801, "lon": -100.75818307158882, "alt_km": 800.0983924132288, "timestamp": "2025-12-20T18:51:32.105801+00:00", "meta": {"OBJECT_NAME": "COSMOS 2251 DEB", "OBJECT_ID": "1993-036BH", "EPOCH": "2025-12-20T12:59:17.668608", "MEAN_MOTION": 13.81791469, "ECCENTRICITY": 0.02643199, "INCLINATION": 73.8953, "RA_OF_ASC_NODE": 92.1735, "ARG_OF_PERICENTER": 103.5652, "MEAN_ANOMALY": 259.506, "EPHEMERIS_TYPE": 0, "CLASSIFICATION_TYPE": "U", "NORAD_CAT_ID": 33816, "ELEMENT_SET_NO": 999, "REV_AT_EPOCH": 84781, "BSTAR": 0.00024720586, "MEAN_MOTION_DOT": 3.24e-06, "MEAN_MOTION_DDOT": 0}, "tle": {"line1": "1 33816U 93036BH  25354.54117672  .00000324  00000+0  24721-3 0  9991", "line2": "2 33816  73.8953  92.1735 0264319 103.5652 259.5060 13.81791469847816"}}, "geometry": {"type": "Point", "coordinates": [-100.75818307158882, 36.87712994989801]}}, {"type": "Feature", "properties": {"norad_id": 33818, "name": "COSMOS 2251 DEB", "group": "cosmos-2251-debris", "lat": -2.7305748227572213, "lon": 148.82329124975487, "alt_km": 542.7635687819338, "timestamp": "2025-12-20T18:51:32.105814+00:00", "meta": {"OBJECT_NAME": "COSMOS 2251 DEB", "OBJECT_ID": "1993-036BK", "EPOCH": "2025-12-20T05:21:47.500416", "MEAN_MOTION": 15.13058669, "ECCENTRICITY": 0.0025342, "INCLINATION": 74.0771, "RA_OF_ASC_NODE": 150.7662, "ARG_OF_PERICENTER": 136.3634, "MEAN_ANOMALY": 39.4286, "EPHEMERIS_TYPE": 0, "CLASSIFICATION_TYPE": "U", "NORAD_CAT_ID": 33818, "ELEMENT_SET_NO": 999, "REV_AT_EPOCH": 89975, "BSTAR": 0.0017239, "MEAN_MOTION_DOT": 0.00030819, "MEAN_MOTION_DDOT": 0}, "tle": {"line1": "1 33818U 93036BK  25354.22346644  .00030819  00000+0  17239-2 0  9998", "line2": "2 33818  74.0771 150.7662 0025342 136.3634  39.4286 15.13058669899754"}}, "geometry": {"type": "Point", "coordinates": [148.82329124975487, -2.7305748227572213]}}, {"type": "Feature", "properties": {"norad_id": 33819, "name": "COSMOS 2251 DEB", "group": "cosmos-2251-debris", "lat": -48.72262131781284, "lon": 176.44467581375392, "alt_km": 807.303912998852, "timestamp": "2025-12-20T18:51:32.105826+00:00", "meta": {"OBJECT_NAME": "COSMOS 2251 DEB", "OBJECT_ID": "1993-036BL", "EPOCH": "2025-12-20T01:13:29.138880", "MEAN_MOTION": 14.32246054, "ECCENTRICITY": 0.00893588, "INCLINATION": 74.1776, "RA_OF_ASC_NODE": 196.6206, "ARG_OF_PERICENTER": 55.742, "MEAN_ANOMALY": 67.0213, "EPHEMERIS_TYPE": 0, "CLASSIFICATION_TYPE": "U", "NORAD_CAT_ID": 33819, "ELEMENT_SET_NO": 999, "REV_AT_EPOCH": 87600, "BSTAR": 0.00042117105, "MEAN_MOTION_DOT": 1.163e-05, "MEAN_MOTION_DDOT": 0}, "tle": {"line1": "1 33819U 93036BL  25354.05103170  .00001163  00000+0  42117-3 0  9999", "line2": "2 33819  74.1776 196.6206 0089358  55.7420  67.0213 14.32246054876005"}}, "geometry": {"type": "Point", "coordinates": [176.44467581375392, -48.72262131781284]}}, {"type": "Feature", "properties": {"norad_id": 33821, "name": "COSMOS 2251 DEB", "group": "cosmos-2251-debris", "lat": 11.275758446027943, "lon": -57.45240351928616, "alt_km": 455.7538112740667, "timestamp": "2025-12-20T18:51:32.105836+00:00", "meta": {"OBJECT_NAME": "COSMOS 2251 DEB", "OBJECT_ID": "1993-036BN", "EPOCH": "2025-12-20T02:23:20.746752", "MEAN_MOTION": 15.25744458, "ECCENTRICITY": 0.00502333, "INCLINATION": 74.0299, "RA_OF_ASC_NODE": 127.272, "ARG_OF_PERICENTER": 158.5982, "MEAN_ANOMALY": 201.7335, "EPHEMERIS_TYPE": 0, "CLASSIFICATION_TYPE": "U", "NORAD_CAT_ID": 33821, "ELEMENT_SET_NO": 999, "REV_AT_EPOCH": 75113, "BSTAR": 0.00085563087, "MEAN_MOTION_DOT": 0.0002267, "MEAN_MOTION_DDOT": 0}, "tle": {"line1": "1 33821U 93036BN  25354.09954568  .00022670  00000+0  85563-3 0  9999", "line2": "2 33821  74.0299 127.2720 0050233 158.5982 201.7335 15.25744458751135"}}, "geometry": {"type": "Point", "coordinates": [-57.45240351928616, 11.275758446027943]}}, {"type": "Feature", "properties": {"norad_id": 33822, "name": "COSMOS 2251 DEB", "group": "cosmos-2251-debris", "lat": -52.81929958053475, "lon": 157.3547393444608, "alt_km": 835.0799906358507, "timestamp": "2025-12-20T18:51:32.105847+00:00", "meta": {"OBJECT_NAME": "COSMOS 2251 DEB", "OBJECT_ID": "1993-036BP", "EPOCH": "2025-12-20T12:28:38.229024", "MEAN_MOTION": 14.13104908, "ECCENTRICITY": 0.01528912, "INCLINATION": 74.0675, "RA_OF_ASC_NODE": 179.947, "ARG_OF_PERICENTER": 224.3699, "MEAN_ANOMALY": 165.8667, "EPHEMERIS_TYPE": 0, "CLASSIFICATION_TYPE": "U", "NORAD_CAT_ID": 33822, "ELEMENT_SET_NO": 999, "REV_AT_EPOCH": 86164, "BSTAR": 0.00089699115, "MEAN_MOTION_DOT": 1.848e-05, "MEAN_MOTION_DDOT": 0}, "tle": {"line1": "1 33822U 93036BP  25354.51988691  .00001848  00000+0  89699-3 0  9999", "line2": "2 33822  74.0675 179.9470 0152891 224.3699 165.8667 14.13104908861642"}}, "geometry": {"type": "Point", "coordinates": [157.3547393444608, -52.81929958053475]}}, {"type": "Feature", "properties": {"norad_id": 33823, "name": "COSMOS 2251 DEB", "group": "cosmos-2251-debris", "lat": 68.71326249066695, "lon": -176.55414593380658, "alt_km": 1042.473358555494, "timestamp": "2025-12-20T18:51:32.105858+00:00", "meta": {"OBJECT_NAME": "COSMOS 2251 DEB", "OBJECT_ID": "1993-036BQ", "EPOCH": "2025-12-20T09:58:30.172800", "MEAN_MOTION": 13.98967787, "ECCENTRICITY": 0.02094049, "INCLINATION": 73.8096, "RA_OF_ASC_NODE": 135.8775, "ARG_OF_PERICENTER": 259.8051, "MEAN_ANOMALY": 112.5653, "EPHEMERIS_TYPE": 0, "CLASSIFICATION_TYPE": "U", "NORAD_CAT_ID": 33823, "ELEMENT_SET_NO": 999, "REV_AT_EPOCH": 85717, "BSTAR": 0.00055908456, "MEAN_MOTION_DOT": 9.47e-06, "MEAN_MOTION_DDOT": 0}, "tle": {"line1": "1 33823U 93036BQ  25354.41562700  .00000947  00000+0  55908-3 0  9993", "line2": "2 33823  73.8096 135.8775 0209404 259.8051 112.5653 13.98967787857175"}}, "geometry": {"type": "Point", "coordinates": [-176.55414593380658, 68.71326249066695]}}]}